SKYSAT-A                
1 39418U 13066C   26188.09773233  .00002472  00000+0  14268-3 0  9998
2 39418  97.3802 236.8604 0019883 243.0841 116.8359 15.13085318691493
SKYSAT-B                
1 40072U 14037D   26188.36517727  .00001123  00000+0  12886-3 0  9995
2 40072  98.3848 148.4820 0004922 199.0980 161.0051 14.88079196648965
SKYSAT-C1               
1 41601U 16040C   26187.62426663  .00007669  00000+0  21640-3 0  9995
2 41601  96.9556 218.2931 0001234  14.2930 345.8350 15.36647042560859
SKYSAT-C4               
1 41771U 16058B   26188.48875847  .00012130  00000+0  22367-3 0  9995
2 41771  96.9169 209.4180 0003163 130.0488 230.1042 15.49254680548613
SKYSAT-C5               
1 41772U 16058C   26187.92650127  .00006073  00000+0  18242-3 0  9992
2 41772  97.0459 227.6879 0002457 176.3166 183.8096 15.34766054546771
SKYSAT-C2               
1 41773U 16058D   26187.59401764  .00010488  00000+0  24350-3 0  9999
2 41773  97.0163 208.9626 0002560  24.3070 335.8299 15.42537650548040
SKYSAT-C3               
1 41774U 16058E   26188.44059501  .00017481  00000+0  27706-3 0  9991
2 41774  96.9001 218.5177 0002001 135.7039 224.4376 15.53450138549250
SKYSAT-C11              
1 42987U 17068A   26187.96261653  .00023637  00000+0  30510-3 0  9996
2 42987  97.4374 337.6719 0000652 158.6283 201.5000 15.58985087486325
SKYSAT-C10              
1 42988U 17068B   26187.91668502  .00008421  00000+0  25039-3 0  9990
2 42988  97.4529 324.9630 0001286 108.8962 251.2421 15.35000808485382
SKYSAT-C9               
1 42989U 17068C   26188.35832516  .00009325  00000+0  21994-3 0  9998
2 42989  97.4448 326.5388 0009188  69.8221 290.4013 15.42079854485864
SKYSAT-C8               
1 42990U 17068D   26187.92284444  .00008297  00000+0  22874-3 0  9998
2 42990  97.4547 324.8452 0001190  97.2210 262.9170 15.37378325485347
SKYSAT-C7               
1 42991U 17068E   26188.17743157  .00007466  00000+0  20626-3 0  9998
2 42991  97.4556 326.0941 0006415  47.3462 312.8322 15.37334035485440
SKYSAT-C6               
1 42992U 17068F   26187.90932486  .00006719  00000+0  20626-3 0  9994
2 42992  97.4672 325.7029 0005364 104.5619 255.6218 15.34062756485347
SKYSAT-C12              
1 43797U 18099AR  26187.85958909  .00014343  00000+0  26105-3 0  9995
2 43797  96.9257 210.3120 0005886  89.2485 270.9442 15.49578889424903
